NORAD_CAT_ID,OBJECT_NAME,OBJECT_TYPE,EPOCH,MEAN_MOTION,ECCENTRICITY,INCLINATION,RA_OF_ASC_NODE,ARG_OF_PERICENTER,MEAN_ANOMALY,BSTAR,MEAN_MOTION_DOT,MEAN_MOTION_DDOT,TLE_LINE0,TLE_LINE1,TLE_LINE2,SEMIMAJOR_AXIS,PERIOD,APOGEE,PERIGEE,DECAYED
49421.0,STARLINK-3112,PAYLOAD,2022-01-01 06:00:00,15.45660782,0.0001107,53.2173,253.9284,84.3843,260.9098,-0.0145479999999999,-0.00655747,0.0,0 STARLINK-3112,1 49421U 21104P   22001.25001157 -.00655747  00000-0 -14548-1 0  9993,2 49421  53.2173 253.9284 0001107  84.3843 260.9098 15.45660782  8911,6807.574000000001,93.164,430.193,428.686,0.0
49421.0,STARLINK-3112,PAYLOAD,2022-01-01 14:00:01,15.45191684,0.0001146,53.2173,252.3443,64.6019,336.3109,-0.014713,-0.00652805,0.0,0 STARLINK-3112,1 49421U 21104P   22001.58335648 -.00652805  00000-0 -14713-1 0  9990,2 49421  53.2173 252.3443 0001146  64.6019 336.3109 15.45191684  3679,6808.9519999999975,93.192,431.597,430.037,0.0
49421.0,STARLINK-3112,PAYLOAD,2022-01-01 22:00:00,15.44726824,0.0001445,53.2173,250.765,49.0217,46.816,-0.01501,-0.00655267,0.0,0 STARLINK-3112,1 49421U 21104P   22001.91667824 -.00655267  00000-0 -15010-1 0  9997,2 49421  53.2173 250.7650 0001445  49.0217  46.8160 15.44726824  3679,6810.318,93.22,433.167,431.199,0.0
49421.0,STARLINK-3112,PAYLOAD,2022-01-02 14:00:01,15.43694403,0.0001455,53.2171,247.6044,52.51300000000001,151.6769,-0.012136,-0.00520496,0.0,0 STARLINK-3112,1 49421U 21104P   22002.58334491 -.00520496  00000-0 -12136-1 0  9993,2 49421  53.2171 247.6044 0001455  52.5130 151.6769 15.43694403  9125,6813.354,93.283,436.21,434.228,0.0
49421.0,STARLINK-3112,PAYLOAD,2022-01-02 22:00:00,15.4332516,0.0001486999999999,53.2174,246.0284,56.7298,200.7184,-0.015659,-0.00659758,0.0,0 STARLINK-3112,1 49421U 21104P   22002.91667824 -.00659758  00000-0 -15659-1 0  9996,2 49421  53.2174 246.0284 0001487  56.7298 200.7184 15.43325160  3675,6814.441,93.305,437.319,435.292,0.0
49421.0,STARLINK-3112,PAYLOAD,2022-01-03 14:00:01,15.42391654,0.000124,53.2174,242.8745,58.5456,303.8404,-0.016146,-0.00659147,0.0,0 STARLINK-3112,1 49421U 21104P   22003.58334491 -.00659147  00000-0 -16146-1 0  9995,2 49421  53.2174 242.8745 0001240  58.5456 303.8404 15.42391654  3674,6817.19,93.362,439.9,438.21,0.0
49421.0,STARLINK-3112,PAYLOAD,2022-01-03 21:46:37,15.43028144,0.0001303,53.2175,241.3472,82.2727,277.8428,-0.0042511,-0.00186329,0.0,0 STARLINK-3112,1 49421U 21104P   22003.90738318 -.00186329  00000-0 -42511-2 0  9990,2 49421  53.2175 241.3472 0001303  82.2727 277.8428 15.43028144  8247,6815.315,93.323,438.068,436.292,0.0
49421.0,STARLINK-3112,PAYLOAD,2022-01-04 14:00:01,15.40880886,0.0001734,53.2169,238.1543,53.9125,101.733,-0.012894,-0.00504121,0.0,0 STARLINK-3112,1 49421U 21104P   22004.58334491 -.00504121  00000-0 -12894-1 0  9993,2 49421  53.2169 238.1543 0001734  53.9125 101.7330 15.40880886  3651,6821.645,93.453,444.693,442.327,0.0
49421.0,STARLINK-3112,PAYLOAD,2022-01-04 21:07:20,15.41633704,0.0001488,53.2172,236.7587,78.6811,281.4363,-0.0043556,-0.00182281,0.0,0 STARLINK-3112,1 49421U 21104P   22004.88010406 -.00182281  00000-0 -43556-2 0  9992,2 49421  53.2172 236.7587 0001488  78.6811 281.4363 15.41633704  8393,6819.424,93.407,442.304,440.275,0.0
49421.0,STARLINK-3112,PAYLOAD,2022-01-05 14:00:01,15.39592649,0.0001347,53.2175,233.4446,60.8746,242.8657,-0.017727,-0.00659131,0.0,0 STARLINK-3112,1 49421U 21104P   22005.58334491 -.00659131  00000-0 -17727-1 0  9996,2 49421  53.2175 233.4446 0001347  60.8746 242.8657 15.39592649  9586,6825.45,93.531,448.234,446.396,0.0
49421.0,STARLINK-3112,PAYLOAD,2022-01-05 22:00:00,15.39128709,0.0001476,53.2174,231.8789,48.2051,303.7967,-0.01814,-0.00663895,0.0,0 STARLINK-3112,1 49421U 21104P   22005.91667824 -.00663895  00000-0 -18140-1 0  9994,2 49421  53.2174 231.8789 0001476  48.2051 303.7967 15.39128709  3676,6826.821999999999,93.559,449.694,447.679,0.0
49421.0,STARLINK-3112,PAYLOAD,2022-01-06 14:00:01,15.38193735,0.0001335,53.2174,228.7448,57.5957,29.2529,-0.018592,-0.00660105,0.0,0 STARLINK-3112,1 49421U 21104P   22006.58334491 -.00660105  00000-0 -18592-1 0  9991,2 49421  53.2174 228.7448 0001335  57.5957  29.2529 15.38193735  9743,6829.5880000000025,93.616,452.364,450.541,0.0
49421.0,STARLINK-3112,PAYLOAD,2022-01-06 22:00:00,15.3772848,0.0001585,53.2172,227.1824,48.7782,84.6505,-0.018958,-0.00662766,0.0,0 STARLINK-3112,1 49421U 21104P   22006.91667824 -.00662766  00000-0 -18958-1 0  9998,2 49421  53.2172 227.1824 0001585  48.7782  84.6505 15.37728480  3683,6830.965,93.645,453.913,451.747,0.0
49421.0,STARLINK-3112,PAYLOAD,2022-01-07 14:00:01,15.36702003,0.0001587,53.2167,224.054,63.1649,161.7946,-0.015542,-0.00527951,0.0,0 STARLINK-3112,1 49421U 21104P   22007.58334491 -.00527951  00000-0 -15542-1 0  9995,2 49421  53.2167 224.0540 0001587  63.1649 161.7946 15.36702003  9890,6834.007,93.707,456.956,454.787,0.0
49421.0,STARLINK-3112,PAYLOAD,2022-01-07 22:00:00,15.36236191,0.0001491,53.2171,222.495,75.2357,194.6232,-0.015885,-0.00531278,0.0,0 STARLINK-3112,1 49421U 21104P   22007.91667824 -.00531278  00000-0 -15885-1 0  9998,2 49421  53.2171 222.4950 0001491  75.2357 194.6232 15.36236191  3646,6835.388000000001,93.736,458.272,456.234,0.0
49421.0,STARLINK-3112,PAYLOAD,2022-01-08 00:00:00,15.36188769,0.0001261,53.2173,222.1055,66.7653,304.1924,-0.018823,-0.00628317,0.0,0 STARLINK-3112,1 49421U 21104P   22008.00001157 -.00628317  00000-0 -18823-1 0  9996,2 49421  53.2173 222.1055 0001261  66.7653 304.1924 15.36188769  9953,6835.529,93.738,458.256,456.532,0.0
49421.0,STARLINK-3112,PAYLOAD,2022-01-08 14:00:01,15.35393262,0.000127,53.2175,219.375,62.8729,295.0562,-0.02028,-0.0065763,0.0,0 STARLINK-3112,1 49421U 21104P   22008.58334491 -.00657630  00000-0 -20280-1 0  9999,2 49421  53.2175 219.3750 0001270  62.8729 295.0562 15.35393262 10049,6837.89,93.787,460.62300000000016,458.886,0.0
49421.0,STARLINK-3112,PAYLOAD,2022-01-08 22:00:00,15.34929892,0.0001435,53.2175,217.8192,50.0209,351.1239,-0.020798,-0.00664005,0.0,0 STARLINK-3112,1 49421U 21104P   22008.91667824 -.00664005  00000-0 -20798-1 0  9993,2 49421  53.2175 217.8192 0001435  50.0209 351.1239 15.34929892  3654,6839.266,93.815,462.112,460.149,0.0
49421.0,STARLINK-3112,PAYLOAD,2022-01-09 14:00:01,15.33994577,0.000147,53.2176,214.7049,55.9444,69.9559,-0.021269,-0.00659381,0.0,0 STARLINK-3112,1 49421U 21104P   22009.58334491 -.00659381  00000-0 -21269-1 0  9993,2 49421  53.2176 214.7049 0001470  55.9444  69.9559 15.33994577 10205,6842.045999999999,93.873,464.916,462.905,0.0
49421.0,STARLINK-3112,PAYLOAD,2022-01-09 22:00:00,15.33527984,0.0001665999999999,53.2175,213.1524,48.4668,118.9683,-0.021604,-0.00659879,0.0,0 STARLINK-3112,1 49421U 21104P   22009.91667824 -.00659879  00000-0 -21604-1 0  9994,2 49421  53.2175 213.1524 0001666  48.4668 118.9683 15.33527984  3666,6843.433000000001,93.901,466.43800000000016,464.158,0.0
49421.0,STARLINK-3112,PAYLOAD,2022-01-10 14:00:01,15.32486726,0.0001404,53.2172,210.0436,59.67100000000001,189.2163,-0.017242,-0.00512812,0.0,0 STARLINK-3112,1 49421U 21104P   22010.58334491 -.00512812  00000-0 -17242-1 0  9998,2 49421  53.2172 210.0436 0001404  59.6710 189.2163 15.32486726 10358,6846.533,93.965,469.359,467.437,0.0
49421.0,STARLINK-3112,PAYLOAD,2022-01-10 22:00:00,15.32128218,0.0001506,53.2177,208.4956,54.7368,233.9422,-0.022569,-0.00659492,0.0,0 STARLINK-3112,1 49421U 21104P   22010.91667824 -.00659492  00000-0 -22569-1 0  9998,2 49421  53.2177 208.4956 0001506  54.7368 233.9422 15.32128218 10409,6847.601,93.987,470.497,468.435,0.0
49421.0,STARLINK-3112,PAYLOAD,2022-01-11 14:00:01,15.31195615,0.0001443,53.2178,205.3949,49.1584,317.5474,-0.023256,-0.00659907,0.0,0 STARLINK-3112,1 49421U 21104P   22011.58334491 -.00659907  00000-0 -23256-1 0  9998,2 49421  53.2178 205.3949 0001443  49.1584 317.5474 15.31195615  3655,6850.380999999999,94.044,473.234,471.257,0.0
49421.0,STARLINK-3112,PAYLOAD,2022-01-11 22:00:00,15.30728875,0.0001474,53.2177,203.8488,48.2489,356.6283,-0.02363,-0.00660743,0.0,0 STARLINK-3112,1 49421U 21104P   22011.91667824 -.00660743  00000-0 -23630-1 0  9990,2 49421  53.2177 203.8488 0001474  48.2489 356.6283 15.30728875  3643,6851.773,94.073,474.648,472.628,0.0
49421.0,STARLINK-3112,PAYLOAD,2022-01-12 06:00:00,15.30261908,0.0001329,53.2176,202.3005,57.4243,25.0654,-0.023937,-0.00659711,0.0,0 STARLINK-3112,1 49421U 21104P   22012.25001157 -.00659711  00000-0 -23937-1 0  9992,2 49421  53.2176 202.3005 0001329  57.4243  25.0654 15.30261908 10613,6853.167,94.102,475.943,474.121,0.0
49421.0,STARLINK-3112,PAYLOAD,2022-01-12 14:00:01,15.29795056,0.0001625,53.2177,200.7546,45.5122,74.0285,-0.024259,-0.00659037,0.0,0 STARLINK-3112,1 49421U 21104P   22012.58334491 -.00659037  00000-0 -24259-1 0  9997,2 49421  53.2177 200.7546 0001625  45.5122  74.0285 15.29795056  3675,6854.561,94.13,477.54,475.31300000000016,0.0
49421.0,STARLINK-3112,PAYLOAD,2022-01-13 14:00:01,15.28395122,0.000164,53.2177,196.1244,51.4235,175.9057,-0.025301,-0.00658288,0.0,0 STARLINK-3112,1 49421U 21104P   22013.58334491 -.00658288  00000-0 -25301-1 0  9994,2 49421  53.2177 196.1244 0001640  51.4235 175.9057 15.28395122 10817,6858.746,94.216,481.736,479.487,0.0
49421.0,STARLINK-3112,PAYLOAD,2022-01-13 22:00:00,15.27926596,0.0001476,53.2176,194.5846,60.5037,201.6334,-0.025532,-0.00655025,0.0,0 STARLINK-3112,1 49421U 21104P   22013.91667824 -.00655025  00000-0 -25532-1 0  9992,2 49421  53.2176 194.5846 0001476  60.5037 201.6334 15.27926596  3635,6860.148,94.245,483.026,481.001,0.0
49421.0,STARLINK-3112,PAYLOAD,2022-01-14 14:00:01,15.2699672,0.0001479,53.2178,191.5039,51.4909,278.5806,-0.026498,-0.0066033,0.0,0 STARLINK-3112,1 49421U 21104P   22014.58334491 -.00660330  00000-0 -26498-1 0  9994,2 49421  53.2178 191.5039 0001479  51.4909 278.5806 15.26996720  3641,6862.933000000001,94.303,485.81300000000016,483.783,0.0
